#aV2020  6 20  0  0  0.00000000     288 DD+AD WGS84 FIT  NGA
## 2110 518400.00000000   300.00000000 59020 0.0000000000000
+   32     1  2  3  4  5  6  7  8  9 10 11 12 13 14 15 16 17
+         18 19 20 21 22 23 24 25 26 27 28 29 30 31 32  0  0
+          0  0  0  0  0  0  0  0  0  0  0  0  0  0  0  0  0
+          0  0  0  0  0  0  0  0  0  0  0  0  0  0  0  0  0
+          0  0  0  0  0  0  0  0  0  0  0  0  0  0  0  0  0
++         2  2  2  2  2  2  2  2  2  2  2  2  2  2  2  2  2
++         2  2  2  2  2  2  2  2  2  2  2  2  2  2  2  0  0
++         0  0  0  0  0  0  0  0  0  0  0  0  0  0  0  0  0
++         0  0  0  0  0  0  0  0  0  0  0  0  0  0  0  0  0
++         0  0  0  0  0  0  0  0  0  0  0  0  0  0  0  0  0
%c cc cc ccc ccc cccc cccc cccc cccc ccccc ccccc ccccc ccccc
%c cc cc ccc ccc cccc cccc cccc cccc ccccc ccccc ccccc ccccc
%f  0.0000000  0.000000000  0.00000000000  0.000000000000000
%f  0.0000000  0.000000000  0.00000000000  0.000000000000000
%i    0    0    0    0      0      0      0      0         0
%i    0    0    0    0      0      0      0      0         0
/*      NGA, ST. LOUIS,MO.                                  
/*   EPHEMERIS COMPUTED FROM 2 DAYS OF DATA                 
/*   EPOCHA v5 SMOOTHER                                     
/*   G1762 IERS2010 SATAF SATAPC                            
*  2020  6 20  8  5  0.00000000
P  1 -21280.109389 -15205.320133  -5799.787639     12.852569                    
V  1   7042.061963   1570.774619 -30853.572548      0.082048                    
P  2   2645.715801  16972.497664  20911.570799   -474.955294                    
V  2 -23490.060245  -8910.931707  10482.430548     -0.058974                    
P  3 -12102.432533 -17426.745967  15978.261091   -214.670963                    
V  3    546.303240 -20421.757724 -21669.310840     -0.120890                    
P  4 -16942.160571  -5752.857050  19652.339380   -104.757570                    
V  4  20596.024508 -14083.435262  13609.451211     -0.047916                    
P  5   1702.693687  26370.850031   1017.784679    -15.013642                    
V  5  -3364.193225  -1164.453392  31676.350885     -0.007690                    
P  6 -10239.101418  11243.038806  21830.687954   -291.464475                    
V  6 -24492.898003 -12584.663431  -4974.730121     -0.058175                    
P  7 -24153.564228  -3957.694467 -10590.842175   -308.670258                    
V  7 -11148.844927  -8405.248563  27264.571916     -0.088105                    
P  8  -6520.234519 -13662.410831 -21796.416142    -38.178522                    
V  8  23063.990925 -15336.315823   2962.403979     -0.012794                    
P  9 -22942.189546   4999.372822  12383.156230   -239.553100                    
V  9  11624.051937 -11015.373154  25864.868358     -0.067971                    
P 10  11964.858844 -14484.705429 -18589.882814   -376.605932                    
V 10   3026.396597  23716.413149 -16684.796534     -0.110351                    
P 11 -15322.425992 -13380.527266 -17408.488537   -243.658231                    
V 11  21448.977218  -2631.312248 -17673.430388      0.106568                    
P 12  10556.309787  18305.179111  15949.615797    103.939352                    
V 12  -1736.920302  20575.245514 -21989.250596     -0.044719                    
P 13  -2789.478095  16973.632737 -20327.923731     19.855982                    
V 13 -23389.354892  10353.931371  12017.863331      0.032193                    
P 14  15973.403651 -17951.446671  11458.152093     -4.569348                    
V 14  13533.085465  -4625.164355 -27125.031561      0.027363                    
P 15   9085.222738  13306.339355 -21416.225729   -223.021977                    
V 15 -20776.466682  16636.182781   1926.294707      0.025905                    
P 16   -390.445918 -26272.335999  -1704.861002   -172.700466                    
V 16   2673.881831  -1847.892914  32340.557600     -0.046906                    
P 17 -21603.980927  15125.568676   3354.825352    283.566491                    
V 17  -4269.168126     82.296729 -31912.095351      0.058371                    
P 18  23815.077907   3903.684642 -11134.389012    225.161647                    
V 18  11375.275720   8656.131877  27366.804711      0.104602                    
P 19 -17854.077878  16775.234686   9916.423946   -142.772387                    
V 19 -12476.522394   4224.847101 -28771.010869      0.050642                    
P 20  15672.967481  -2257.440487 -21405.996849    527.473897                    
V 20   5228.184139  26588.228930    803.820063     -0.000841                    
P 21  18301.641481  -5798.802765 -17501.086007     13.850135                    
V 21  21181.208233  11138.380211  17990.741621      0.047229                    
P 22 -10363.543790 -22790.154169   9296.236346   -776.988145                    
V 22   1496.176803 -11865.730820 -27912.249175      0.020855                    
P 23 -23475.310268  12131.558304   4761.349135   -104.207609                    
V 23   2862.727265  -5536.115178  30335.141601      0.032977                    
P 24  20792.394048  15041.582815  -7746.511632    -14.566993                    
V 24  -9929.807530   -954.134486 -28890.287425     -0.005167                    
P 25  14663.161984   7997.236968  20474.832347     14.858001                    
V 25    758.774821  26459.608107 -10502.089512      0.037741                    
P 26   5818.414658 -23277.550427  11109.174690    228.726701                    
V 26   4314.859161  13919.085573  27041.563822      0.069891                    
P 27   4888.405853 -18291.338072 -18628.075820   -325.256916                    
V 27  20298.383867 -11793.282282  17363.827783     -0.098353                    
P 28 -12098.483642  15697.760018 -17173.694330    707.022702                    
V 28   -745.931571 -22897.867148 -19603.085516     -0.034511                    
P 29  21510.756958   -310.664939  15549.535790   -132.013208                    
V 29 -16499.515985  10981.261304  22946.534757     -0.086673                    
P 30 -18461.704330   5306.628484 -18385.535274   -245.477877                    
V 30 -19788.843776 -12671.634045  15956.865871     -0.079336                    
P 31   9348.640747 -12249.631215  21616.127216    -50.317570                    
V 31  24255.807515  13023.413961  -2657.373315     -0.024842                    
P 32  20379.813428 -16575.967663   3419.235923    303.246683                    
V 32   5233.273273    157.792726 -31354.462037      0.067806                    
EOF
